CCSDS_OMM_VERS = 2.0
CREATION_DATE  = 
ORIGINATOR     = 

OBJECT_NAME    = STARLINK-36216
OBJECT_ID      = 2025-304AB
CENTER_NAME    = EARTH
REF_FRAME      = TEME
TIME_SYSTEM    = UTC
MEAN_ELEMENT_THEORY = SGP/SGP4

EPOCH          = 2026-01-12T20:37:09.688224
MEAN_MOTION    = 15.52555092
ECCENTRICITY   = .0003773
INCLINATION    = 69.9997
RA_OF_ASC_NODE = 320.3478
ARG_OF_PERICENTER = 270.5106
MEAN_ANOMALY   = 89.5649

EPHEMERIS_TYPE = 0
CLASSIFICATION_TYPE = U
NORAD_CAT_ID   = 67217
ELEMENT_SET_NO = 999
REV_AT_EPOCH   = 539
BSTAR          = .14666E-2
MEAN_MOTION_DOT = .91223E-3
MEAN_MOTION_DDOT = 0

CCSDS_OMM_VERS = 2.0
CREATION_DATE  = 
ORIGINATOR     = 

OBJECT_NAME    = STARLINK-36211
OBJECT_ID      = 2025-304AC
CENTER_NAME    = EARTH
REF_FRAME      = TEME
TIME_SYSTEM    = UTC
MEAN_ELEMENT_THEORY = SGP/SGP4

EPOCH          = 2026-01-12T20:36:39.887136
MEAN_MOTION    = 15.52527354
ECCENTRICITY   = .0003842
INCLINATION    = 69.9997
RA_OF_ASC_NODE = 320.3463
ARG_OF_PERICENTER = 270.6302
MEAN_ANOMALY   = 89.4444

EPHEMERIS_TYPE = 0
CLASSIFICATION_TYPE = U
NORAD_CAT_ID   = 67218
ELEMENT_SET_NO = 999
REV_AT_EPOCH   = 536
BSTAR          = .90807E-3
MEAN_MOTION_DOT = .56114E-3
MEAN_MOTION_DDOT = 0

CCSDS_OMM_VERS = 2.0
CREATION_DATE  = 
ORIGINATOR     = 

OBJECT_NAME    = DISKSAT C
OBJECT_ID      = 2025-305A
CENTER_NAME    = EARTH
REF_FRAME      = TEME
TIME_SYSTEM    = UTC
MEAN_ELEMENT_THEORY = SGP/SGP4

EPOCH          = 2026-01-12T15:54:02.837376
MEAN_MOTION    = 15.06375820
ECCENTRICITY   = .0002054
INCLINATION    = 45.0014
RA_OF_ASC_NODE = 187.1105
ARG_OF_PERICENTER = 13.7028
MEAN_ANOMALY   = 346.3902

EPHEMERIS_TYPE = 0
CLASSIFICATION_TYPE = U
NORAD_CAT_ID   = 67219
ELEMENT_SET_NO = 999
REV_AT_EPOCH   = 384
BSTAR          = .67236E-3
MEAN_MOTION_DOT = .983E-4
MEAN_MOTION_DDOT = 0

CCSDS_OMM_VERS = 2.0
CREATION_DATE  = 
ORIGINATOR     = 

OBJECT_NAME    = DISKSAT B
OBJECT_ID      = 2025-305B
CENTER_NAME    = EARTH
REF_FRAME      = TEME
TIME_SYSTEM    = UTC
MEAN_ELEMENT_THEORY = SGP/SGP4

EPOCH          = 2026-01-11T20:49:16.657824
MEAN_MOTION    = 15.06291911
ECCENTRICITY   = .00018553
INCLINATION    = 45.0012
RA_OF_ASC_NODE = 191.3204
ARG_OF_PERICENTER = 13.4661
MEAN_ANOMALY   = 346.6263

EPHEMERIS_TYPE = 0
CLASSIFICATION_TYPE = U
NORAD_CAT_ID   = 67220
ELEMENT_SET_NO = 999
REV_AT_EPOCH   = 372
BSTAR          = .68294204E-3
MEAN_MOTION_DOT = .9965E-4
MEAN_MOTION_DDOT = 0

CCSDS_OMM_VERS = 2.0
CREATION_DATE  = 
ORIGINATOR     = 

OBJECT_NAME    = DISKSAT D
OBJECT_ID      = 2025-305C
CENTER_NAME    = EARTH
REF_FRAME      = TEME
TIME_SYSTEM    = UTC
MEAN_ELEMENT_THEORY = SGP/SGP4

EPOCH          = 2026-01-12T17:31:52.080960
MEAN_MOTION    = 15.06274906
ECCENTRICITY   = .0002111
INCLINATION    = 45.0015
RA_OF_ASC_NODE = 186.7713
ARG_OF_PERICENTER = 28.8392
MEAN_ANOMALY   = 331.2599

EPHEMERIS_TYPE = 0
CLASSIFICATION_TYPE = U
NORAD_CAT_ID   = 67221
ELEMENT_SET_NO = 999
REV_AT_EPOCH   = 385
BSTAR          = .60204E-3
MEAN_MOTION_DOT = .8751E-4
MEAN_MOTION_DDOT = 0

CCSDS_OMM_VERS = 2.0
CREATION_DATE  = 
ORIGINATOR     = 

OBJECT_NAME    = DISKSAT A
OBJECT_ID      = 2025-305D
CENTER_NAME    = EARTH
REF_FRAME      = TEME
TIME_SYSTEM    = UTC
MEAN_ELEMENT_THEORY = SGP/SGP4

EPOCH          = 2026-01-12T15:58:00.041664
MEAN_MOTION    = 15.06235964
ECCENTRICITY   = .0002011
INCLINATION    = 45.0017
RA_OF_ASC_NODE = 187.1299
ARG_OF_PERICENTER = 36.8117
MEAN_ANOMALY   = 323.2895

EPHEMERIS_TYPE = 0
CLASSIFICATION_TYPE = U
NORAD_CAT_ID   = 67222
ELEMENT_SET_NO = 999
REV_AT_EPOCH   = 383
BSTAR          = .65472E-3
MEAN_MOTION_DOT = .9528E-4
MEAN_MOTION_DDOT = 0

CCSDS_OMM_VERS = 2.0
CREATION_DATE  = 
ORIGINATOR     = 

OBJECT_NAME    = ELECTRON KICK STAGE R/B
OBJECT_ID      = 2025-305E
CENTER_NAME    = EARTH
REF_FRAME      = TEME
TIME_SYSTEM    = UTC
MEAN_ELEMENT_THEORY = SGP/SGP4

EPOCH          = 2026-01-12T20:01:27.552288
MEAN_MOTION    = 15.53589754
ECCENTRICITY   = .0163358
INCLINATION    = 44.9838
RA_OF_ASC_NODE = 176.6143
ARG_OF_PERICENTER = 287.9231
MEAN_ANOMALY   = 70.3911

EPHEMERIS_TYPE = 0
CLASSIFICATION_TYPE = U
NORAD_CAT_ID   = 67223
ELEMENT_SET_NO = 999
REV_AT_EPOCH   = 398
BSTAR          = .9309E-3
MEAN_MOTION_DOT = .108325E-2
MEAN_MOTION_DDOT = .11523E-4

CCSDS_OMM_VERS = 2.0
CREATION_DATE  = 
ORIGINATOR     = 

OBJECT_NAME    = TJS-23
OBJECT_ID      = 2025-306A
CENTER_NAME    = EARTH
REF_FRAME      = TEME
TIME_SYSTEM    = UTC
MEAN_ELEMENT_THEORY = SGP/SGP4

EPOCH          = 2026-01-12T00:45:42.680736
MEAN_MOTION    = 1.00269497
ECCENTRICITY   = .000034
INCLINATION    = 5.9431
RA_OF_ASC_NODE = 298.2948
ARG_OF_PERICENTER = 53.0459
MEAN_ANOMALY   = 307.1271

EPHEMERIS_TYPE = 0
CLASSIFICATION_TYPE = U
NORAD_CAT_ID   = 67226
ELEMENT_SET_NO = 999
REV_AT_EPOCH   = 32
BSTAR          = 0
MEAN_MOTION_DOT = .39E-6
MEAN_MOTION_DDOT = 0

CCSDS_OMM_VERS = 2.0
CREATION_DATE  = 
ORIGINATOR     = 

OBJECT_NAME    = CZ-5 R/B
OBJECT_ID      = 2025-306B
CENTER_NAME    = EARTH
REF_FRAME      = TEME
TIME_SYSTEM    = UTC
MEAN_ELEMENT_THEORY = SGP/SGP4

EPOCH          = 2026-01-12T01:49:17.233824
MEAN_MOTION    = 1.92501043
ECCENTRICITY   = .7578093
INCLINATION    = 16.2838
RA_OF_ASC_NODE = 291.5585
ARG_OF_PERICENTER = 192.8297
MEAN_ANOMALY   = 122.4088

EPHEMERIS_TYPE = 0
CLASSIFICATION_TYPE = U
NORAD_CAT_ID   = 67227
ELEMENT_SET_NO = 999
REV_AT_EPOCH   = 45
BSTAR          = .22316E-2
MEAN_MOTION_DOT = .8109E-4
MEAN_MOTION_DDOT = 0

CCSDS_OMM_VERS = 2.0
CREATION_DATE  = 
ORIGINATOR     = 

OBJECT_NAME    = QPS-SAR-15
OBJECT_ID      = 2025-307A
CENTER_NAME    = EARTH
REF_FRAME      = TEME
TIME_SYSTEM    = UTC
MEAN_ELEMENT_THEORY = SGP/SGP4

EPOCH          = 2026-01-12T15:30:48.080448
MEAN_MOTION    = 14.97353356
ECCENTRICITY   = .0007887
INCLINATION    = 42.0081
RA_OF_ASC_NODE = 1.0816
ARG_OF_PERICENTER = 51.7995
MEAN_ANOMALY   = 308.3539

EPHEMERIS_TYPE = 0
CLASSIFICATION_TYPE = U
NORAD_CAT_ID   = 67228
ELEMENT_SET_NO = 999
REV_AT_EPOCH   = 335
BSTAR          = .42183E-3
MEAN_MOTION_DOT = .4804E-4
MEAN_MOTION_DDOT = 0

CCSDS_OMM_VERS = 2.0
CREATION_DATE  = 
ORIGINATOR     = 

OBJECT_NAME    = ELECTRON R/B
OBJECT_ID      = 2025-307B
CENTER_NAME    = EARTH
REF_FRAME      = TEME
TIME_SYSTEM    = UTC
MEAN_ELEMENT_THEORY = SGP/SGP4

EPOCH          = 2026-01-12T08:51:20.966688
MEAN_MOTION    = 15.82791248
ECCENTRICITY   = .0152081
INCLINATION    = 41.9928
RA_OF_ASC_NODE = 349.1807
ARG_OF_PERICENTER = 38.4053
MEAN_ANOMALY   = 322.7515

EPHEMERIS_TYPE = 0
CLASSIFICATION_TYPE = U
NORAD_CAT_ID   = 67229
ELEMENT_SET_NO = 999
REV_AT_EPOCH   = 346
BSTAR          = .18026E-2
MEAN_MOTION_DOT = .986679E-2
MEAN_MOTION_DDOT = .37501E-3

CCSDS_OMM_VERS = 2.0
CREATION_DATE  = 
ORIGINATOR     = 

OBJECT_NAME    = ELECTRON KICK STAGE R/B
OBJECT_ID      = 2025-307C
CENTER_NAME    = EARTH
REF_FRAME      = TEME
TIME_SYSTEM    = UTC
MEAN_ELEMENT_THEORY = SGP/SGP4

EPOCH          = 2026-01-12T15:13:26.805792
MEAN_MOTION    = 16.05866904
ECCENTRICITY   = .0093547
INCLINATION    = 41.9993
RA_OF_ASC_NODE = 345.9431
ARG_OF_PERICENTER = 74.7647
MEAN_ANOMALY   = 286.3537

EPHEMERIS_TYPE = 0
CLASSIFICATION_TYPE = U
NORAD_CAT_ID   = 67230
ELEMENT_SET_NO = 999
REV_AT_EPOCH   = 192
BSTAR          = .18597E-2
MEAN_MOTION_DOT = .26282E-1
MEAN_MOTION_DDOT = .80997E-5

